[{"OBJECT_NAME":"STARLINK-2517","OBJECT_ID":"2021-036AK","EPOCH":"2026-03-10T00:00:02.999808","MEAN_MOTION":15.31001061,"ECCENTRICITY":0.00014361,"INCLINATION":53.1608,"RA_OF_ASC_NODE":87.075,"ARG_OF_PERICENTER":91.5522,"MEAN_ANOMALY":44.4443,"EPHEMERIS_TYPE":0,"CLASSIFICATION_TYPE":"U","NORAD_CAT_ID":48309,"ELEMENT_SET_NO":999,"REV_AT_EPOCH":579,"BSTAR":0.001597019,"MEAN_MOTION_DOT":0.00048443,"MEAN_MOTION_DDOT":0},{"OBJECT_NAME":"TRANSPORTER-10 OBJECT AD","OBJECT_ID":"2024-043AD","EPOCH":"2026-03-09T20:38:52.416960","MEAN_MOTION":15.34189901,"ECCENTRICITY":0.00089841,"INCLINATION":97.547,"RA_OF_ASC_NODE":207.3753,"ARG_OF_PERICENTER":221.4908,"MEAN_ANOMALY":138.5653,"EPHEMERIS_TYPE":0,"CLASSIFICATION_TYPE":"U","NORAD_CAT_ID":59125,"ELEMENT_SET_NO":999,"REV_AT_EPOCH":11202,"BSTAR":0.00036310552,"MEAN_MOTION_DOT":0.00011954,"MEAN_MOTION_DDOT":0}]
